{
  "type": "FeatureCollection",
  "features": [
    {
      "type": "Feature",
      "properties": {
        "norad_id": 34079,
        "name": "IRIDIUM 33 DEB",
        "group": "iridium-33-debris",
        "lat": 43.41892001985405,
        "lon": -170.71559291676388,
        "alt_km": 616.8284547895346,
        "timestamp": "2025-12-03T19:33:07.362306+00:00",
        "meta_object_name": "IRIDIUM 33 DEB",
        "meta_object_id": "1997-051CN",
        "meta_epoch": "2025-12-03T09:30:48.355200",
        "meta_mean_motion": 14.83132899,
        "meta_eccentricity": 0.0006722,
        "meta_inclination": 86.3782,
        "meta_ra_of_asc_node": 12.9106,
        "meta_arg_of_pericenter": 36.4792,
        "meta_mean_anomaly": 28.0106,
        "meta_ephemeris_type": 0,
        "meta_classification_type": "U",
        "meta_norad_cat_id": 34079,
        "meta_element_set_no": 999,
        "meta_rev_at_epoch": 88839,
        "meta_bstar": 0.0021224,
        "meta_mean_motion_dot": 0.00017354,
        "meta_mean_motion_ddot": 0,
        "tle_line1": "1 34079U 97051CN  25337.39639300  .00017354  00000+0  21224-2 0  9990",
        "tle_line2": "2 34079  86.3782  12.9106 0006722  36.4792  28.0106 14.83132899888397"
      },
      "geometry": {
        "type": "Point",
        "coordinates": [
          -170.71559291676388,
          43.41892001985405
        ]
      }
    },
    {
      "type": "Feature",
      "properties": {
        "norad_id": 34088,
        "name": "IRIDIUM 33 DEB",
        "group": "iridium-33-debris",
        "lat": -19.470137011576526,
        "lon": 33.54244173874756,
        "alt_km": 603.5255036587041,
        "timestamp": "2025-12-03T19:33:07.362317+00:00",
        "meta_object_name": "IRIDIUM 33 DEB",
        "meta_object_id": "1997-051CX",
        "meta_epoch": "2025-12-03T10:01:58.293984",
        "meta_mean_motion": 14.90629069,
        "meta_eccentricity": 0.0005179,
        "meta_inclination": 86.386,
        "meta_ra_of_asc_node": 35.0047,
        "meta_arg_of_pericenter": 211.1891,
        "meta_mean_anomaly": 162.3362,
        "meta_ephemeris_type": 0,
        "meta_classification_type": "U",
        "meta_norad_cat_id": 34088,
        "meta_element_set_no": 999,
        "meta_rev_at_epoch": 88603,
        "meta_bstar": 0.0033725,
        "meta_mean_motion_dot": 0.00033173,
        "meta_mean_motion_ddot": 0,
        "tle_line1": "1 34088U 97051CX  25337.41803581  .00033173  00000+0  33725-2 0  9993",
        "tle_line2": "2 34088  86.3860  35.0047 0005179 211.1891 162.3362 14.90629069886034"
      },
      "geometry": {
        "type": "Point",
        "coordinates": [
          33.54244173874756,
          -19.470137011576526
        ]
      }
    },
    {
      "type": "Feature",
      "properties": {
        "norad_id": 34091,
        "name": "IRIDIUM 33 DEB",
        "group": "iridium-33-debris",
        "lat": 60.35771043352442,
        "lon": -115.53589933797682,
        "alt_km": 642.1880905331982,
        "timestamp": "2025-12-03T19:33:07.362327+00:00",
        "meta_object_name": "IRIDIUM 33 DEB",
        "meta_object_id": "1997-051DA",
        "meta_epoch": "2025-12-03T12:31:35.787072",
        "meta_mean_motion": 14.80633508,
        "meta_eccentricity": 0.0032922,
        "meta_inclination": 86.3425,
        "meta_ra_of_asc_node": 71.0519,
        "meta_arg_of_pericenter": 326.4248,
        "meta_mean_anomaly": 33.4886,
        "meta_ephemeris_type": 0,
        "meta_classification_type": "U",
        "meta_norad_cat_id": 34091,
        "meta_element_set_no": 999,
        "meta_rev_at_epoch": 87730,
        "meta_bstar": 0.0066529,
        "meta_mean_motion_dot": 0.00051895,
        "meta_mean_motion_ddot": 0,
        "tle_line1": "1 34091U 97051DA  25337.52194198  .00051895  00000+0  66529-2 0  9995",
        "tle_line2": "2 34091  86.3425  71.0519 0032922 326.4248  33.4886 14.80633508877302"
      },
      "geometry": {
        "type": "Point",
        "coordinates": [
          -115.53589933797682,
          60.35771043352442
        ]
      }
    },
    {
      "type": "Feature",
      "properties": {
        "norad_id": 34097,
        "name": "IRIDIUM 33 DEB",
        "group": "iridium-33-debris",
        "lat": 61.597726193419135,
        "lon": 12.405949742535983,
        "alt_km": 718.6838347630592,
        "timestamp": "2025-12-03T19:33:07.362337+00:00",
        "meta_object_name": "IRIDIUM 33 DEB",
        "meta_object_id": "1997-051DG",
        "meta_epoch": "2025-12-03T09:13:33.436128",
        "meta_mean_motion": 14.34659428,
        "meta_eccentricity": 0.0083674,
        "meta_inclination": 86.2008,
        "meta_ra_of_asc_node": 5.5372,
        "meta_arg_of_pericenter": 32.5438,
        "meta_mean_anomaly": 328.0876,
        "meta_ephemeris_type": 0,
        "meta_classification_type": "U",
        "meta_norad_cat_id": 34097,
        "meta_element_set_no": 999,
        "meta_rev_at_epoch": 86985,
        "meta_bstar": 0.0017654,
        "meta_mean_motion_dot": 5.213e-05,
        "meta_mean_motion_ddot": 0,
        "tle_line1": "1 34097U 97051DG  25337.38441477  .00005213  00000+0  17654-2 0  9998",
        "tle_line2": "2 34097  86.2008   5.5372 0083674  32.5438 328.0876 14.34659428869850"
      },
      "geometry": {
        "type": "Point",
        "coordinates": [
          12.405949742535983,
          61.597726193419135
        ]
      }
    },
    {
      "type": "Feature",
      "properties": {
        "norad_id": 34145,
        "name": "IRIDIUM 33 DEB",
        "group": "iridium-33-debris",
        "lat": 86.11738623603517,
        "lon": 54.02282911952589,
        "alt_km": 710.6719471193346,
        "timestamp": "2025-12-03T19:33:07.362348+00:00",
        "meta_object_name": "IRIDIUM 33 DEB",
        "meta_object_id": "1997-051DY",
        "meta_epoch": "2025-12-03T10:48:54.133056",
        "meta_mean_motion": 14.42182821,
        "meta_eccentricity": 0.005529,
        "meta_inclination": 86.2113,
        "meta_ra_of_asc_node": 336.664,
        "meta_arg_of_pericenter": 123.3414,
        "meta_mean_anomaly": 237.3097,
        "meta_ephemeris_type": 0,
        "meta_classification_type": "U",
        "meta_norad_cat_id": 34145,
        "meta_element_set_no": 999,
        "meta_rev_at_epoch": 87504,
        "meta_bstar": 0.0014092,
        "meta_mean_motion_dot": 4.745e-05,
        "meta_mean_motion_ddot": 0,
        "tle_line1": "1 34145U 97051DY  25337.45062654  .00004745  00000+0  14092-2 0  9998",
        "tle_line2": "2 34145  86.2113 336.6640 0055290 123.3414 237.3097 14.42182821875045"
      },
      "geometry": {
        "type": "Point",
        "coordinates": [
          54.02282911952589,
          86.11738623603517
        ]
      }
    },
    {
      "type": "Feature",
      "properties": {
        "norad_id": 34146,
        "name": "IRIDIUM 33 DEB",
        "group": "iridium-33-debris",
        "lat": -50.107325026286475,
        "lon": 178.20335316779475,
        "alt_km": 719.8004797131116,
        "timestamp": "2025-12-03T19:33:07.362358+00:00",
        "meta_object_name": "IRIDIUM 33 DEB",
        "meta_object_id": "1997-051DZ",
        "meta_epoch": "2025-12-03T12:34:09.121152",
        "meta_mean_motion": 14.48941519,
        "meta_eccentricity": 0.0024987,
        "meta_inclination": 86.2835,
        "meta_ra_of_asc_node": 353.8721,
        "meta_arg_of_pericenter": 254.6968,
        "meta_mean_anomaly": 258.8958,
        "meta_ephemeris_type": 0,
        "meta_classification_type": "U",
        "meta_norad_cat_id": 34146,
        "meta_element_set_no": 999,
        "meta_rev_at_epoch": 87973,
        "meta_bstar": 0.0014032,
        "meta_mean_motion_dot": 5.353e-05,
        "meta_mean_motion_ddot": 0,
        "tle_line1": "1 34146U 97051DZ  25337.52371668  .00005353  00000+0  14032-2 0  9995",
        "tle_line2": "2 34146  86.2835 353.8721 0024987 254.6968 258.8958 14.48941519879736"
      },
      "geometry": {
        "type": "Point",
        "coordinates": [
          178.20335316779475,
          -50.107325026286475
        ]
      }
    },
    {
      "type": "Feature",
      "properties": {
        "norad_id": 34159,
        "name": "IRIDIUM 33 DEB",
        "group": "iridium-33-debris",
        "lat": -76.91734361794659,
        "lon": 36.109992141741024,
        "alt_km": 755.7890008430504,
        "timestamp": "2025-12-03T19:33:07.362369+00:00",
        "meta_object_name": "IRIDIUM 33 DEB",
        "meta_object_id": "1997-051EN",
        "meta_epoch": "2025-12-03T11:33:44.047584",
        "meta_mean_motion": 14.38455653,
        "meta_eccentricity": 0.0026516,
        "meta_inclination": 86.3515,
        "meta_ra_of_asc_node": 52.188,
        "meta_arg_of_pericenter": 320.2185,
        "meta_mean_anomaly": 39.7068,
        "meta_ephemeris_type": 0,
        "meta_classification_type": "U",
        "meta_norad_cat_id": 34159,
        "meta_element_set_no": 999,
        "meta_rev_at_epoch": 87826,
        "meta_bstar": 0.00060665,
        "meta_mean_motion_dot": 1.877e-05,
        "meta_mean_motion_ddot": 0,
        "tle_line1": "1 34159U 97051EN  25337.48175981  .00001877  00000+0  60665-3 0  9995",
        "tle_line2": "2 34159  86.3515  52.1880 0026516 320.2185  39.7068 14.38455653878265"
      },
      "geometry": {
        "type": "Point",
        "coordinates": [
          36.109992141741024,
          -76.91734361794659
        ]
      }
    }
  ]
}